NORAD_CAT_ID,OBJECT_NAME,OBJECT_TYPE,EPOCH,MEAN_MOTION,ECCENTRICITY,INCLINATION,RA_OF_ASC_NODE,ARG_OF_PERICENTER,MEAN_ANOMALY,BSTAR,MEAN_MOTION_DOT,MEAN_MOTION_DDOT,TLE_LINE0,TLE_LINE1,TLE_LINE2,SEMIMAJOR_AXIS,PERIOD,APOGEE,PERIGEE,DECAYED
51998.0,STARLINK-3618,PAYLOAD,2022-06-01 04:00:00,15.49894285,0.0001302,53.2175,87.3364,85.0128,156.6725,-0.00026362,-0.00015389,0.0,0 STARLINK-3618,1 51998U 22025AU  22152.16667824 -.00015389  00000-0 -26362-3 0  9995,2 51998  53.2175  87.3364 0001302  85.0128 156.6725 15.49894285 14415,6795.172,92.91,417.922,416.152,0.0
51998.0,STARLINK-3618,PAYLOAD,2022-06-01 20:00:01,15.49886099,0.0001812,53.2175,84.1484,92.6249,270.8936,1.0537e-07,-4.46e-06,0.0,0 STARLINK-3618,1 51998U 22025AU  22152.83334491 -.00000446  00000-0  10537-6 0  9997,2 51998  53.2175  84.1484 0001812  92.6249 270.8936 15.49886099  1308,6795.196,92.91,418.292,415.83,0.0
51998.0,STARLINK-3618,PAYLOAD,2022-06-03 01:23:23,15.49963673,0.0001445,53.2164,78.2866,111.0634,249.0531,-0.00031994,-0.00018618,0.0,0 STARLINK-3618,1 51998U 22025AU  22154.05791448 -.00018618  00000-0 -31994-3 0  9990,2 51998  53.2164  78.2866 0001445 111.0634 249.0531 15.49963673 14701,6794.969,92.905,417.816,415.852,0.0
51998.0,STARLINK-3618,PAYLOAD,2022-06-03 10:40:57,15.49621999,0.0001291,53.216,76.4386,129.9266,230.1858,-0.0010612,-0.00059669,0.0,0 STARLINK-3618,1 51998U 22025AU  22154.44511211 -.00059669  00000-0 -10612-2 0  9995,2 51998  53.2160  76.4386 0001291 129.9266 230.1858 15.49621999 14763,6795.968000000003,92.926,418.71,416.956,0.0
51998.0,STARLINK-3618,PAYLOAD,2022-06-04 00:37:28,15.49091383,9.71e-05,53.2166,73.6696,54.8265,305.2836,-0.0017628,-0.0009654,0.0,0 STARLINK-3618,1 51998U 22025AU  22155.02602936 -.00096540  00000-0 -17628-2 0  9998,2 51998  53.2166  73.6696 0000971  54.8265 305.2836 15.49091383 14859,6797.52,92.958,420.045,418.725,0.0
51998.0,STARLINK-3618,PAYLOAD,2022-06-04 09:55:23,15.48690273,0.0001011,53.217,71.8244,126.8309,233.2793,-0.0025395,-0.00136252,0.0,0 STARLINK-3618,1 51998U 22025AU  22155.41346758 -.00136252  00000-0 -25395-2 0  9993,2 51998  53.2170  71.8244 0001011 126.8309 233.2793 15.48690273 14919,6798.693,92.982,421.246,419.871,0.0
51998.0,STARLINK-3618,PAYLOAD,2022-06-05 20:00:01,15.456219099999998,0.0001121,53.2177,65.0902,94.2991,258.7111,-0.01595,-0.00721922,0.0,0 STARLINK-3618,1 51998U 22025AU  22156.83334491 -.00721922  00000-0 -15950-1 0  9990,2 51998  53.2177  65.0902 0001121  94.2991 258.7111 15.45621910 15139,6807.688,93.166,430.316,428.79,0.0
51998.0,STARLINK-3618,PAYLOAD,2022-06-05 22:00:00,15.45493384,0.0001166,53.2174,64.6956,81.6094,15.3278,-0.01599,-0.00720641,0.0,0 STARLINK-3618,1 51998U 22025AU  22156.91667824 -.00720641  00000-0 -15990-1 0  9999,2 51998  53.2174  64.6956 0001166  81.6094  15.3278 15.45493384  1300,6808.066,93.174,430.725,429.137,0.0
51998.0,STARLINK-3618,PAYLOAD,2022-06-06 14:00:01,15.44472038,0.0001269,53.2172,61.5349,90.5063,116.4677,-0.016489,-0.00717761,0.0,0 STARLINK-3618,1 51998U 22025AU  22157.58334491 -.00717761  00000-0 -16489-1 0  9997,2 51998  53.2172  61.5349 0001269  90.5063 116.4677 15.44472038  1307,6811.066999999999,93.236,433.796,432.068,0.0
51998.0,STARLINK-3618,PAYLOAD,2022-06-06 20:00:01,15.44090902,0.0001303,53.2175,60.352,78.3189,79.2858,-0.016762,-0.00720027,0.0,0 STARLINK-3618,1 51998U 22025AU  22157.83334491 -.00720027  00000-0 -16762-1 0  9998,2 51998  53.2175  60.3520 0001303  78.3189  79.2858 15.44090902 15285,6812.188,93.259,434.94,433.165,0.0
51998.0,STARLINK-3618,PAYLOAD,2022-06-06 22:00:00,15.43961849,0.0001303,53.2174,59.9583,82.6887,178.3833,-0.016771,-0.00717454,0.0,0 STARLINK-3618,1 51998U 22025AU  22157.91667824 -.00717454  00000-0 -16771-1 0  9996,2 51998  53.2174  59.9583 0001303  82.6887 178.3833 15.43961849  1308,6812.566999999999,93.267,435.32,433.545,0.0
51998.0,STARLINK-3618,PAYLOAD,2022-06-07 14:00:01,15.42941015,0.0001078,53.2174,56.8049,95.5661,271.8661,-0.017332,-0.0071623999999999,0.0,0 STARLINK-3618,1 51998U 22025AU  22158.58334491 -.00716240  00000-0 -17332-1 0  9997,2 51998  53.2174  56.8049 0001078  95.5661 271.8661 15.42941015  1303,6815.571999999999,93.328,438.171,436.702,0.0
51998.0,STARLINK-3618,PAYLOAD,2022-06-07 22:00:00,15.424339800000002,0.0001163,53.2175,55.2322,73.4718,346.2187,-0.017757,-0.0072096999999999,0.0,0 STARLINK-3618,1 51998U 22025AU  22158.91667824 -.00720970  00000-0 -17757-1 0  9999,2 51998  53.2175  55.2322 0001163  73.4718 346.2187 15.42433980 15452,6817.065,93.359,439.723,438.137,0.0
51998.0,STARLINK-3618,PAYLOAD,2022-06-08 14:00:01,15.41413572,0.000124,53.2172,52.0858,85.0423,77.3315,-0.018358,-0.00720299,0.0,0 STARLINK-3618,1 51998U 22025AU  22159.58334491 -.00720299  00000-0 -18358-1 0  9996,2 51998  53.2172  52.0858 0001240  85.0423  77.3315 15.41413572  1304,6820.074000000001,93.421,442.784,441.093,0.0
51998.0,STARLINK-3618,PAYLOAD,2022-06-08 22:00:01,15.409011499999998,0.0001346,53.2175,50.5167,78.9988,133.8612,-0.018559,-0.00716159,0.0,0 STARLINK-3618,1 51998U 22025AU  22159.91668981 -.00716159  00000-0 -18559-1 0  9990,2 51998  53.2175  50.5167 0001346  78.9988 133.8612 15.40901150 15617,6821.585,93.452,444.369,442.532,0.0
51998.0,STARLINK-3618,PAYLOAD,2022-06-09 14:00:01,15.39881036,0.0001168,53.2174,47.3776,90.3602,221.4421,-0.019188,-0.00715731,0.0,0 STARLINK-3618,1 51998U 22025AU  22160.58334491 -.00715731  00000-0 -19188-1 0  9995,2 51998  53.2174  47.3776 0001168  90.3602 221.4421 15.39881036  1300,6824.598000000001,93.514,447.26,445.666,0.0
51998.0,STARLINK-3618,PAYLOAD,2022-06-09 22:00:00,15.3937337,0.0001172,53.2175,45.8123,71.9126,288.4712,-0.019611,-0.00719053,0.0,0 STARLINK-3618,1 51998U 22025AU  22160.91667824 -.00719053  00000-0 -19611-1 0  9993,2 51998  53.2175  45.8123 0001172  71.9126 288.4712 15.39373370 15769,6826.098000000001,93.545,448.763,447.163,0.0
51998.0,STARLINK-3618,PAYLOAD,2022-06-10 14:00:01,15.38352753,0.0001154,53.2174,42.6801,84.1637,11.5504,-0.020275,-0.00718842,0.0,0 STARLINK-3618,1 51998U 22025AU  22161.58334491 -.00718842  00000-0 -20275-1 0  9991,2 51998  53.2174  42.6801 0001154  84.1637  11.5504 15.38352753  1309,6829.1169999999975,93.607,451.77,450.194,0.0
51998.0,STARLINK-3618,PAYLOAD,2022-06-10 22:00:00,15.3784272,0.0001325,53.2173,41.1185,71.5494,70.9087,-0.020592,-0.0071807,0.0,0 STARLINK-3618,1 51998U 22025AU  22161.91667824 -.00718070  00000-0 -20592-1 0  9992,2 51998  53.2173  41.1185 0001325  71.5494  70.9087 15.37842720 15912,6830.627,93.638,453.397,451.587,0.0
51998.0,STARLINK-3618,PAYLOAD,2022-06-11 22:00:00,15.363121599999998,0.0001299,53.2173,36.4358,83.2202,195.7969,-0.021603,-0.00716818,0.0,0 STARLINK-3618,1 51998U 22025AU  22162.91667824 -.00716818  00000-0 -21603-1 0  9995,2 51998  53.2173  36.4358 0001299  83.2202 195.7969 15.36312160 16070,6835.163000000001,93.731,457.916,456.14,0.0
51998.0,STARLINK-3618,PAYLOAD,2022-06-12 14:00:01,15.35291018,0.0001159,53.2173,33.3183,98.4292,268.5648,-0.022267,-0.00715023,0.0,0 STARLINK-3618,1 51998U 22025AU  22163.58334491 -.00715023  00000-0 -22267-1 0  9994,2 51998  53.2173  33.3183 0001159  98.4292 268.5648 15.35291018  1304,6838.193,93.793,460.851,459.266,0.0
51998.0,STARLINK-3618,PAYLOAD,2022-06-12 22:00:00,15.34784731,0.0001178,53.2174,31.7642,77.5144,332.5454,-0.022822,-0.00720575,0.0,0 STARLINK-3618,1 51998U 22025AU  22163.91667824 -.00720575  00000-0 -22822-1 0  9995,2 51998  53.2174  31.7642 0001178  77.5144 332.5454 15.34784731 16224,6839.696999999999,93.824,462.36800000000005,460.756,0.0
51998.0,STARLINK-3618,PAYLOAD,2022-06-13 14:00:01,15.33763427,0.0001286999999999,53.2174,28.6538,81.0515,53.3085,-0.023497,-0.00718268,0.0,0 STARLINK-3618,1 51998U 22025AU  22164.58334491 -.00718268  00000-0 -23497-1 0  9995,2 51998  53.2174  28.6538 0001287  81.0515  53.3085 15.33763427  1305,6842.733,93.887,465.479,463.717,0.0
51998.0,STARLINK-3618,PAYLOAD,2022-06-13 22:00:00,15.33252968,0.0001374,53.2173,27.1033,77.0192,98.57,-0.02385,-0.00717403,0.0,0 STARLINK-3618,1 51998U 22025AU  22164.91667824 -.00717403  00000-0 -23850-1 0  9994,2 51998  53.2173  27.1033 0001374  77.0192  98.5700 15.33252968  1309,6844.252,93.918,467.057,465.176,0.0
51998.0,STARLINK-3618,PAYLOAD,2022-06-14 06:00:00,15.32744324,0.0001334,53.2173,25.5513,80.8545,135.3522,-0.024321,-0.00719678,0.0,0 STARLINK-3618,1 51998U 22025AU  22165.25001157 -.00719678  00000-0 -24321-1 0  9993,2 51998  53.2173  25.5513 0001334  80.8545 135.3522 15.32744324 16437,6845.766,93.949,468.544,466.717,0.0
51998.0,STARLINK-3618,PAYLOAD,2022-06-14 14:00:01,15.32232519,0.0001406,53.2174,24.0,106.9084,149.3039,-0.024588,-0.00716202,0.0,0 STARLINK-3618,1 51998U 22025AU  22165.58334491 -.00716202  00000-0 -24588-1 0  9994,2 51998  53.2174  24.0000 0001406 106.9084 149.3039 15.32232519  1307,6847.29,93.981,470.11800000000005,468.192,0.0
51998.0,STARLINK-3618,PAYLOAD,2022-06-14 22:00:00,15.31723063,0.0001335,53.2175,22.4533,75.3972,220.2055,-0.025024,-0.00717209,0.0,0 STARLINK-3618,1 51998U 22025AU  22165.91667824 -.00717209  00000-0 -25024-1 0  9994,2 51998  53.2175  22.4533 0001335  75.3972 220.2055 15.31723063  1302,6848.808000000001,94.012,471.588,469.759,0.0
51998.0,STARLINK-3618,PAYLOAD,2022-06-15 14:00:01,15.30701218,0.0001169,53.2176,19.3574,83.9827,288.5667,-0.025699,-0.00713611,0.0,0 STARLINK-3618,1 51998U 22025AU  22166.58334491 -.00713611  00000-0 -25699-1 0  9990,2 51998  53.2176  19.3574 0001169  83.9827 288.5667 15.30701218 16637,6851.856,94.075,474.522,472.92,0.0
51998.0,STARLINK-3618,PAYLOAD,2022-06-15 22:00:00,15.30195128,0.0001217,53.2176,17.8141,75.1071,334.9933,-0.026376,-0.00720386,0.0,0 STARLINK-3618,1 51998U 22025AU  22166.91667824 -.00720386  00000-0 -26376-1 0  9996,2 51998  53.2176  17.8141 0001217  75.1071 334.9933 15.30195128  1305,6853.3669999999975,94.106,476.066,474.398,0.0
